[
    {
        "CCSDS_OMM_VERS": "3.0",
        "COMMENT": "GENERATED VIA SPACE-TRACK.ORG API",
        "CREATION_DATE": "2025-03-02T18:08:23",
        "ORIGINATOR": "18 SPCS",
        "OBJECT_NAME": "COSMOS 2476 (GLONASS)",
        "OBJECT_ID": "2011-064A",
        "CENTER_NAME": "EARTH",
        "REF_FRAME": "TEME",
        "TIME_SYSTEM": "UTC",
        "MEAN_ELEMENT_THEORY": "SGP4",
        "EPOCH": "2025-03-02T08:24:58.096224",
        "MEAN_MOTION": "2.13101486",
        "ECCENTRICITY": "0.00248620",
        "INCLINATION": "65.0077",
        "RA_OF_ASC_NODE": "88.8321",
        "ARG_OF_PERICENTER": "240.7679",
        "MEAN_ANOMALY": "107.2131",
        "EPHEMERIS_TYPE": "0",
        "CLASSIFICATION_TYPE": "U",
        "NORAD_CAT_ID": "37867",
        "ELEMENT_SET_NO": "999",
        "REV_AT_EPOCH": "10370",
        "BSTAR": "0.00000000000000",
        "MEAN_MOTION_DOT": "0.00000037",
        "MEAN_MOTION_DDOT": "0.0000000000000",
        "SEMIMAJOR_AXIS": "25508.065",
        "PERIOD": "675.734",
        "APOAPSIS": "19193.349",
        "PERIAPSIS": "19066.512",
        "OBJECT_TYPE": "PAYLOAD",
        "RCS_SIZE": "LARGE",
        "COUNTRY_CODE": "CIS",
        "LAUNCH_DATE": "2011-11-04",
        "SITE": "TTMTR",
        "DECAY_DATE": null,
        "FILE": "4657142",
        "GP_ID": "282083863",
        "TLE_LINE0": "0 COSMOS 2476 (GLONASS)",
        "TLE_LINE1": "1 37867U 11064A   25061.35067241  .00000037  00000-0  00000-0 0  9995",
        "TLE_LINE2": "2 37867  65.0077  88.8321 0024862 240.7679 107.2131  2.13101486103707"
    }
]